{
    "links": {
        "self": "http://www.neowsapp.com/rest/v1/neo/54048902?api_key=iIulBulltgU6a56xZRHN4H3l9WmuAYTsLGpBGhQ2"
    },
    "id": "54048902",
    "neo_reference_id": "54048902",
    "name": "(2020 OT1)",
    "designation": "2020 OT1",
    "nasa_jpl_url": "http://ssd.jpl.nasa.gov/sbdb.cgi?sstr=54048902",
    "absolute_magnitude_h": 24.377,
    "estimated_diameter": {
        "kilometers": {
            "estimated_diameter_min": 0.0354123686,
            "estimated_diameter_max": 0.0791844635
        },
        "meters": {
            "estimated_diameter_min": 35.4123686452,
            "estimated_diameter_max": 79.184463535
        },
        "miles": {
            "estimated_diameter_min": 0.0220042189,
            "estimated_diameter_max": 0.0492029293
        },
        "feet": {
            "estimated_diameter_min": 116.1823155459,
            "estimated_diameter_max": 259.7915553441
        }
    },
    "is_potentially_hazardous_asteroid": false,
    "close_approach_data": [
        {
            "close_approach_date": "2020-07-16",
            "close_approach_date_full": "2020-Jul-16 17:22",
            "epoch_date_close_approach": 1594920120000,
            "relative_velocity": {
                "kilometers_per_second": "13.1458121512",
                "kilometers_per_hour": "47324.9237441972",
                "miles_per_hour": "29405.867200943"
            },
            "miss_distance": {
                "astronomical": "0.0146811595",
                "lunar": "5.7109710455",
                "kilometers": "2196270.190330265",
                "miles": "1364699.014337057"
            },
            "orbiting_body": "Earth"
        }
    ],
    "orbital_data": {
        "orbit_id": "7",
        "orbit_determination_date": "2020-07-31 06:19:04",
        "first_observation_date": "2020-07-18",
        "last_observation_date": "2020-07-30",
        "data_arc_in_days": 12,
        "observations_used": 63,
        "orbit_uncertainty": "8",
        "minimum_orbit_intersection": ".00204279",
        "jupiter_tisserand_invariant": "3.217",
        "epoch_osculation": "2459051.5",
        "eccentricity": ".6296862373493063",
        "semi_major_axis": "2.399689645037382",
        "inclination": "6.481525577133903",
        "ascending_node_longitude": "295.1866652833938",
        "orbital_period": "1357.785114261563",
        "perihelion_distance": ".8886381016477004",
        "perihelion_argument": "313.5469271698425",
        "aphelion_distance": "3.910741188427063",
        "perihelion_time": "2459013.548828119799",
        "mean_anomaly": "10.06228580161061",
        "mean_motion": ".2651376835838913",
        "equinox": "J2000",
        "orbit_class": {
            "orbit_class_type": "APO",
            "orbit_class_description": "Near-Earth asteroid orbits which cross the Earth’s orbit similar to that of 1862 Apollo",
            "orbit_class_range": "a (semi-major axis) > 1.0 AU; q (perihelion) < 1.017 AU"
        }
    },
    "is_sentry_object": false
}